{
    "links": {
        "self": "http://www.neowsapp.com/rest/v1/neo/3991546?api_key=iIulBulltgU6a56xZRHN4H3l9WmuAYTsLGpBGhQ2"
    },
    "id": "3991546",
    "neo_reference_id": "3991546",
    "name": "(2020 CZ1)",
    "designation": "2020 CZ1",
    "nasa_jpl_url": "http://ssd.jpl.nasa.gov/sbdb.cgi?sstr=3991546",
    "absolute_magnitude_h": 25.475,
    "estimated_diameter": {
        "kilometers": {
            "estimated_diameter_min": 0.0213577243,
            "estimated_diameter_max": 0.0477573234
        },
        "meters": {
            "estimated_diameter_min": 21.3577243277,
            "estimated_diameter_max": 47.7573234414
        },
        "miles": {
            "estimated_diameter_min": 0.0132710705,
            "estimated_diameter_max": 0.0296750158
        },
        "feet": {
            "estimated_diameter_min": 70.0712762833,
            "estimated_diameter_max": 156.6841370396
        }
    },
    "is_potentially_hazardous_asteroid": false,
    "close_approach_data": [
        {
            "close_approach_date": "2020-01-15",
            "close_approach_date_full": "2020-Jan-15 13:12",
            "epoch_date_close_approach": 1579093920000,
            "relative_velocity": {
                "kilometers_per_second": "8.8236021925",
                "kilometers_per_hour": "31764.9678929581",
                "miles_per_hour": "19737.5157443772"
            },
            "miss_distance": {
                "astronomical": "0.0247226692",
                "lunar": "9.6171183188",
                "kilometers": "3698458.653034604",
                "miles": "2298115.6419573752"
            },
            "orbiting_body": "Earth"
        },
        {
            "close_approach_date": "2111-11-15",
            "close_approach_date_full": "2111-Nov-15 12:54",
            "epoch_date_close_approach": 4477035240000,
            "relative_velocity": {
                "kilometers_per_second": "12.5225722607",
                "kilometers_per_hour": "45081.2601383771",
                "miles_per_hour": "28011.741889871"
            },
            "miss_distance": {
                "astronomical": "0.0511341436",
                "lunar": "19.8911818604",
                "kilometers": "7649558.966834132",
                "miles": "4753215.5324577416"
            },
            "orbiting_body": "Earth"
        }
    ],
    "orbital_data": {
        "orbit_id": "1",
        "orbit_determination_date": "2020-02-08 10:42:05",
        "first_observation_date": "2020-02-02",
        "last_observation_date": "2020-02-06",
        "data_arc_in_days": 4,
        "observations_used": 16,
        "orbit_uncertainty": "8",
        "minimum_orbit_intersection": ".0191627",
        "jupiter_tisserand_invariant": "3.160",
        "epoch_osculation": "2458882.5",
        "eccentricity": ".6144353391365497",
        "semi_major_axis": "2.525183358926546",
        "inclination": "1.192415422548271",
        "ascending_node_longitude": "11.08537465842315",
        "orbital_period": "1465.675420766753",
        "perihelion_distance": ".9736214654025419",
        "perihelion_argument": "83.4235788605328",
        "aphelion_distance": "4.076745252450549",
        "perihelion_time": "2458848.797551855900",
        "mean_anomaly": "8.278013781201848",
        "mean_motion": ".2456205479734863",
        "equinox": "J2000",
        "orbit_class": {
            "orbit_class_type": "APO",
            "orbit_class_description": "Near-Earth asteroid orbits which cross the Earth’s orbit similar to that of 1862 Apollo",
            "orbit_class_range": "a (semi-major axis) > 1.0 AU; q (perihelion) < 1.017 AU"
        }
    },
    "is_sentry_object": false
}